{
  "norad_id": 65851,
  "name": "SHIYAN-30 01",
  "history": [
    {
      "epoch": "2026-03-28T20:33:15.359328Z",
      "apogee_km": 590.6295464803952,
      "perigee_km": 584.7992681694932,
      "latitude_deg": 9.181846937921483e-06,
      "longitude_deg": -111.07265379209109,
      "height_km": 584.4510307454284,
      "semi_major_axis_km": 6965.851407324944,
      "eccentricity": 0.00041849,
      "inclination_deg": 34.9897,
      "raan_deg": 23.5122,
      "arg_perigee_deg": 41.5623,
      "mean_anomaly_deg": 318.54,
      "mean_motion_rev_day": 14.93280703
    }
  ]
}