{"fetched_at":"2026-03-29T16:36:15Z","count":15609,"tles":[{"name":"SHIYAN-30 01","line1":"1 65851U 25222A   26087.85642777  .00003107  00000+0  29367-3 0  9997","line2":"2 65851  34.9897  23.5122 0004184  41.5623 318.5400 14.93280703 27030","category":"Other"}]}